{"type": "FeatureCollection", "features": [ {"type": "Feature", "properties": {"norad_id": 64901, "name": "CO3D 4", "group": "resource", "lat": 31.625106010739266, "lon": 57.62957213438209, "alt_km": 504.3300974571621, "timestamp": "2025-12-11T20:41:14.745319+00:00", "meta": {"OBJECT_NAME": "CO3D 4", "OBJECT_ID": "2025-156C", "EPOCH": "2025-12-09T21:09:17.831232", "MEAN_MOTION": 15.20201124, "ECCENTRICITY": 0.0001172, "INCLINATION": 97.4339, "RA_OF_ASC_NODE": 60.2895, "ARG_OF_PERICENTER": 212.2858, "MEAN_ANOMALY": 147.8306, "EPHEMERIS_TYPE": 0, "CLASSIFICATION_TYPE": "U", "NORAD_CAT_ID": 64901, "ELEMENT_SET_NO": 999, "REV_AT_EPOCH": 2077, "BSTAR": -2.5806744e-05, "MEAN_MOTION_DOT": -6.26e-06, "MEAN_MOTION_DDOT": 0}, "tle": {"line1": "1 64901U 25156C   25343.88145638 -.00000626  00000+0 -25807-4 0  9990", "line2": "2 64901  97.4339  60.2895 0001172 212.2858 147.8306 15.20201124 20779"}}, "geometry": {"type": "Point", "coordinates": [57.62957213438209, 31.625106010739266]}}, {"type": "Feature", "properties": {"norad_id": 64902, "name": "CO3D 2", "group": "resource", "lat": -34.20537207280044, "lon": -122.95085279915784, "alt_km": 511.98204205261663, "timestamp": "2025-12-11T20:41:14.745328+00:00", "meta": {"OBJECT_NAME": "CO3D 2", "OBJECT_ID": "2025-156D", "EPOCH": "2025-12-11T16:35:15.436032", "MEAN_MOTION": 15.20205459, "ECCENTRICITY": 9.93e-05, "INCLINATION": 97.4341, "RA_OF_ASC_NODE": 61.9728, "ARG_OF_PERICENTER": 80.8055, "MEAN_ANOMALY": 279.3292, "EPHEMERIS_TYPE": 0, "CLASSIFICATION_TYPE": "U", "NORAD_CAT_ID": 64902, "ELEMENT_SET_NO": 999, "REV_AT_EPOCH": 2104, "BSTAR": 0.00011246, "MEAN_MOTION_DOT": 2.368e-05, "MEAN_MOTION_DDOT": 0}, "tle": {"line1": "1 64902U 25156D   25345.69115088  .00002368  00000+0  11246-3 0  9992", "line2": "2 64902  97.4341  61.9728 0000993  80.8055 279.3292 15.20205459 21045"}}, "geometry": {"type": "Point", "coordinates": [-122.95085279915784, -34.20537207280044]}}, {"type": "Feature", "properties": {"norad_id": 64903, "name": "CO3D 1", "group": "resource", "lat": -33.48142058129266, "lon": -122.81405365537921, "alt_km": 511.61345980304577, "timestamp": "2025-12-11T20:41:14.745338+00:00", "meta": {"OBJECT_NAME": "CO3D 1", "OBJECT_ID": "2025-156E", "EPOCH": "2025-12-11T11:51:06.650208", "MEAN_MOTION": 15.20238206, "ECCENTRICITY": 9.028e-05, "INCLINATION": 97.4339, "RA_OF_ASC_NODE": 61.7774, "ARG_OF_PERICENTER": 96.7834, "MEAN_ANOMALY": 263.3503, "EPHEMERIS_TYPE": 0, "CLASSIFICATION_TYPE": "U", "NORAD_CAT_ID": 64903, "ELEMENT_SET_NO": 999, "REV_AT_EPOCH": 2101, "BSTAR": 0.0009878998, "MEAN_MOTION_DOT": 0.00021402, "MEAN_MOTION_DDOT": 0}, "tle": {"line1": "1 64903U 25156E   25345.49382697  .00021402  00000+0  98790-3 0  9992", "line2": "2 64903  97.4339  61.7774 0000902  96.7834 263.3503 15.20238206 21014"}}, "geometry": {"type": "Point", "coordinates": [-122.81405365537921, -33.48142058129266]}}, {"type": "Feature", "properties": {"norad_id": 66514, "name": "SENTINEL-6B", "group": "resource", "lat": 25.963689237556068, "lon": 176.74447795578888, "alt_km": 1331.9575676409577, "timestamp": "2025-12-11T20:41:14.745348+00:00", "meta": {"OBJECT_NAME": "SENTINEL-6B", "OBJECT_ID": "2025-264A", "EPOCH": "2025-12-08T23:22:28.347744", "MEAN_MOTION": 12.8403254, "ECCENTRICITY": 0.00210881, "INCLINATION": 66.0391, "RA_OF_ASC_NODE": 170.2706, "ARG_OF_PERICENTER": 268.225, "MEAN_ANOMALY": 91.6352, "EPHEMERIS_TYPE": 0, "CLASSIFICATION_TYPE": "U", "NORAD_CAT_ID": 66514, "ELEMENT_SET_NO": 999, "REV_AT_EPOCH": 280, "BSTAR": -0.0054273268, "MEAN_MOTION_DOT": -1.368e-05, "MEAN_MOTION_DDOT": 0}, "tle": {"line1": "1 66514U 25264A   25342.97393921 -.00001368  00000+0 -54273-2 0  9992", "line2": "2 66514  66.0391 170.2706 0021088 268.2250  91.6352 12.84032540  2801"}}, "geometry": {"type": "Point", "coordinates": [176.74447795578888, 25.963689237556068]}}]}